start=new Date('2022-01-14T00:00:00.000Z').valueOf();
sats=[{"BSTAR":"0.00003082300000","INCLINATION":"53.0552","REF_FRAME":"TEME","GP_ID":"193811657","APOAPSIS":"548.086","ECCENTRICITY":"0.00012200","FILE":"3272312","MEAN_MOTION_DOT":"0.00000178","ELEMENT_SET_NO":"999","DECAY_DATE":null,"SITE":"AFETR","CLASSIFICATION_TYPE":"U","OBJECT_NAME":"STARLINK-1694","PERIAPSIS":"546.396","TLE_LINE2":"2 46544  53.0552 126.6951 0001220  80.9094 279.2033 15.06391102 71237","MEAN_MOTION_DDOT":"0.0000000000000","PERIOD":"95.593","EPHEMERIS_TYPE":"0","RCS_SIZE":"LARGE","TIME_SYSTEM":"UTC","OBJECT_TYPE":"PAYLOAD","RA_OF_ASC_NODE":"126.6951","TLE_LINE1":"1 46544U 20070N   22013.80389610  .00000178  00000-0  30823-4 0  9991","CENTER_NAME":"EARTH","NORAD_CAT_ID":"46544","MEAN_ELEMENT_THEORY":"SGP4","EPOCH":"2022-01-13T19:17:36.623040","OBJECT_ID":"2020-070N","MEAN_ANOMALY":"279.2033","LAUNCH_DATE":"2020-10-06","MEAN_MOTION":"15.06391102","COUNTRY_CODE":"US","ARG_OF_PERICENTER":"80.9094","SEMIMAJOR_AXIS":"6925.376","REV_AT_EPOCH":"7123"},{"APOAPSIS":"548.393","GP_ID":"193810405","ECCENTRICITY":"0.00016650","FILE":"3272312","INCLINATION":"53.0549","BSTAR":"-0.00000098497000","REF_FRAME":"TEME","PERIOD":"95.593","MEAN_MOTION_DDOT":"0.0000000000000","EPHEMERIS_TYPE":"0","CLASSIFICATION_TYPE":"U","SITE":"AFETR","DECAY_DATE":null,"ELEMENT_SET_NO":"999","MEAN_MOTION_DOT":"-0.00000296","PERIAPSIS":"546.087","TLE_LINE2":"2 46545  53.0549 141.5203 0001665  93.3732 266.7447 15.06391456 71029","OBJECT_NAME":"STARLINK-1696","OBJECT_ID":"2020-070P","MEAN_ANOMALY":"266.7447","TIME_SYSTEM":"UTC","OBJECT_TYPE":"PAYLOAD","RCS_SIZE":"LARGE","EPOCH":"2022-01-13T20:16:39.857664","MEAN_ELEMENT_THEORY":"SGP4","TLE_LINE1":"1 46545U 20070P   22013.84490576 -.00000296  00000-0 -98497-6 0  9996","CENTER_NAME":"EARTH","NORAD_CAT_ID":"46545","RA_OF_ASC_NODE":"141.5203","REV_AT_EPOCH":"7102","LAUNCH_DATE":"2020-10-06","SEMIMAJOR_AXIS":"6925.375","ARG_OF_PERICENTER":"93.3732","COUNTRY_CODE":"US","MEAN_MOTION":"15.06391456"},{"MEAN_MOTION_DDOT":"0.0000000000000","PERIOD":"95.592","EPHEMERIS_TYPE":"0","MEAN_MOTION_DOT":"-0.00000167","ELEMENT_SET_NO":"999","DECAY_DATE":null,"SITE":"AFETR","CLASSIFICATION_TYPE":"U","OBJECT_NAME":"STARLINK-1697","TLE_LINE2":"2 46546  53.0543 142.4645 0001732  87.1410 272.9777 15.06400251 70997","PERIAPSIS":"546.013","APOAPSIS":"548.412","GP_ID":"193810655","FILE":"3272312","ECCENTRICITY":"0.00017320","BSTAR":"0.00000772190000","INCLINATION":"53.0543","REF_FRAME":"TEME","REV_AT_EPOCH":"7099","LAUNCH_DATE":"2020-10-06","MEAN_MOTION":"15.06400251","COUNTRY_CODE":"US","ARG_OF_PERICENTER":"87.1410","SEMIMAJOR_AXIS":"6925.348","OBJECT_ID":"2020-070Q","MEAN_ANOMALY":"272.9777","RCS_SIZE":"LARGE","OBJECT_TYPE":"PAYLOAD","TIME_SYSTEM":"UTC","RA_OF_ASC_NODE":"142.4645","TLE_LINE1":"1 46546U 20070Q   22013.63111517 -.00000167  00000-0  77219-5 0  9993","NORAD_CAT_ID":"46546","CENTER_NAME":"EARTH","MEAN_ELEMENT_THEORY":"SGP4","EPOCH":"2022-01-13T15:08:48.350688"},{"MEAN_MOTION_DOT":"-0.00000276","ELEMENT_SET_NO":"999","DECAY_DATE":null,"SITE":"AFETR","CLASSIFICATION_TYPE":"U","OBJECT_NAME":"STARLINK-1698","TLE_LINE2":"2 46547  53.0541 141.4440 0001222  85.5324 274.5804 15.06387160 71036","PERIAPSIS":"546.407","MEAN_MOTION_DDOT":"0.0000000000000","PERIOD":"95.593","EPHEMERIS_TYPE":"0","BSTAR":"0.00000033026000","INCLINATION":"53.0541","REF_FRAME":"TEME","GP_ID":"193811907","APOAPSIS":"548.099","ECCENTRICITY":"0.00012220","FILE":"3272312","LAUNCH_DATE":"2020-10-06","MEAN_MOTION":"15.06387160","COUNTRY_CODE":"US","ARG_OF_PERICENTER":"85.5324","SEMIMAJOR_AXIS":"6925.388","REV_AT_EPOCH":"7103","RCS_SIZE":"LARGE","OBJECT_TYPE":"PAYLOAD","TIME_SYSTEM":"UTC","RA_OF_ASC_NODE":"141.4440","CENTER_NAME":"EARTH","TLE_LINE1":"1 46547U 20070R   22013.85965017 -.00000276  00000-0  33026-6 0  9990","NORAD_CAT_ID":"46547","EPOCH":"2022-01-13T20:37:53.774688","MEAN_ELEMENT_THEORY":"SGP4","OBJECT_ID":"2020-070R","MEAN_ANOMALY":"274.5804"},{"APOAPSIS":"548.614","GP_ID":"193812158","ECCENTRICITY":"0.00020920","FILE":"3272312","BSTAR":"-0.00020335000000","INCLINATION":"53.0539","REF_FRAME":"TEME","PERIOD":"95.591","MEAN_MOTION_DDOT":"0.0000000000000","EPHEMERIS_TYPE":"0","ELEMENT_SET_NO":"999","MEAN_MOTION_DOT":"-0.00003311","SITE":"AFETR","CLASSIFICATION_TYPE":"U","DECAY_DATE":null,"OBJECT_NAME":"STARLINK-1699","PERIAPSIS":"545.716","TLE_LINE2":"2 46548  53.0539 141.4031 0002092  92.0135 268.1093 15.06415764 71030","OBJECT_ID":"2020-070S","MEAN_ANOMALY":"268.1093","RCS_SIZE":"LARGE","TIME_SYSTEM":"UTC","OBJECT_TYPE":"PAYLOAD","RA_OF_ASC_NODE":"141.4031","EPOCH":"2022-01-13T20:53:48.695136","MEAN_ELEMENT_THEORY":"SGP4","TLE_LINE1":"1 46548U 20070S   22013.87070249 -.00003311  00000-0 -20335-3 0  9997","NORAD_CAT_ID":"46548","CENTER_NAME":"EARTH","REV_AT_EPOCH":"7103","LAUNCH_DATE":"2020-10-06","ARG_OF_PERICENTER":"92.0135","SEMIMAJOR_AXIS":"6925.300","MEAN_MOTION":"15.06415764","COUNTRY_CODE":"US"},{"APOAPSIS":"548.461","GP_ID":"193810906","ECCENTRICITY":"0.00018000","FILE":"3272312","INCLINATION":"53.0531","BSTAR":"0.00001926200000","REF_FRAME":"TEME","MEAN_MOTION_DDOT":"0.0000000000000","PERIOD":"95.592","EPHEMERIS_TYPE":"0","SITE":"AFETR","CLASSIFICATION_TYPE":"U","DECAY_DATE":null,"ELEMENT_SET_NO":"999","MEAN_MOTION_DOT":"0.00000005","TLE_LINE2":"2 46549  53.0531 141.5592 0001800  95.6282 264.4913 15.06399745 71023","PERIAPSIS":"545.968","OBJECT_NAME":"STARLINK-1700","OBJECT_ID":"2020-070T","MEAN_ANOMALY":"264.4913","TIME_SYSTEM":"UTC","OBJECT_TYPE":"PAYLOAD","RCS_SIZE":"LARGE","EPOCH":"2022-01-13T20:00:43.581600","MEAN_ELEMENT_THEORY":"SGP4","TLE_LINE1":"1 46549U 20070T   22013.83383775  .00000005  00000-0  19262-4 0  9998","NORAD_CAT_ID":"46549","CENTER_NAME":"EARTH","RA_OF_ASC_NODE":"141.5592","REV_AT_EPOCH":"7102","LAUNCH_DATE":"2020-10-06","SEMIMAJOR_AXIS":"6925.349","ARG_OF_PERICENTER":"95.6282","MEAN_MOTION":"15.06399745","COUNTRY_CODE":"US"},{"RA_OF_ASC_NODE":"142.5201","EPOCH":"2022-01-13T14:52:53.051808","MEAN_ELEMENT_THEORY":"SGP4","TLE_LINE1":"1 46550U 20070U   22013.62005847  .00000708  00000-0  66427-4 0  9993","CENTER_NAME":"EARTH","NORAD_CAT_ID":"46550","RCS_SIZE":"LARGE","TIME_SYSTEM":"UTC","OBJECT_TYPE":"PAYLOAD","MEAN_ANOMALY":"272.7814","OBJECT_ID":"2020-070U","SEMIMAJOR_AXIS":"6925.358","ARG_OF_PERICENTER":"87.3335","COUNTRY_CODE":"US","MEAN_MOTION":"15.06396886","LAUNCH_DATE":"2020-10-06","REV_AT_EPOCH":"7099","REF_FRAME":"TEME","BSTAR":"0.00006642700000","INCLINATION":"53.0546","ECCENTRICITY":"0.00013970","FILE":"3272312","GP_ID":"193811156","APOAPSIS":"548.191","OBJECT_NAME":"STARLINK-1701","PERIAPSIS":"546.256","TLE_LINE2":"2 46550  53.0546 142.5201 0001397  87.3335 272.7814 15.06396886 70997","ELEMENT_SET_NO":"999","MEAN_MOTION_DOT":"0.00000708","SITE":"AFETR","CLASSIFICATION_TYPE":"U","DECAY_DATE":null,"EPHEMERIS_TYPE":"0","PERIOD":"95.592","MEAN_MOTION_DDOT":"0.0000000000000"},{"RA_OF_ASC_NODE":"127.6991","TLE_LINE1":"1 46552U 20070W   22013.57904765  .00001687  00000-0  13210-3 0  9994","NORAD_CAT_ID":"46552","CENTER_NAME":"EARTH","MEAN_ELEMENT_THEORY":"SGP4","EPOCH":"2022-01-13T13:53:49.716960","RCS_SIZE":"LARGE","OBJECT_TYPE":"PAYLOAD","TIME_SYSTEM":"UTC","MEAN_ANOMALY":"266.1495","OBJECT_ID":"2020-070W","COUNTRY_CODE":"US","MEAN_MOTION":"15.06398817","SEMIMAJOR_AXIS":"6925.352","ARG_OF_PERICENTER":"93.9661","LAUNCH_DATE":"2020-10-06","REV_AT_EPOCH":"7120","REF_FRAME":"TEME","BSTAR":"0.00013210000000","INCLINATION":"53.0537","ECCENTRICITY":"0.00014670","FILE":"3271980","APOAPSIS":"548.233","GP_ID":"193780606","OBJECT_NAME":"STARLINK-1649","TLE_LINE2":"2 46552  53.0537 127.6991 0001467  93.9661 266.1495 15.06398817 71205","PERIAPSIS":"546.201","MEAN_MOTION_DOT":"0.00001687","ELEMENT_SET_NO":"999","DECAY_DATE":null,"CLASSIFICATION_TYPE":"U","SITE":"AFETR","EPHEMERIS_TYPE":"0","MEAN_MOTION_DDOT":"0.0000000000000","PERIOD":"95.592"},{"OBJECT_ID":"2020-070X","MEAN_ANOMALY":"265.5210","RCS_SIZE":"LARGE","TIME_SYSTEM":"UTC","OBJECT_TYPE":"PAYLOAD","RA_OF_ASC_NODE":"111.9852","EPOCH":"2022-01-13T17:45:21.366432","MEAN_ELEMENT_THEORY":"SGP4","TLE_LINE1":"1 46553U 20070X   22013.73983063  .00000148  00000-0  28835-4 0  9992","NORAD_CAT_ID":"46553","CENTER_NAME":"EARTH","REV_AT_EPOCH":"7143","LAUNCH_DATE":"2020-10-06","ARG_OF_PERICENTER":"94.5926","SEMIMAJOR_AXIS":"6925.376","MEAN_MOTION":"15.06391119","COUNTRY_CODE":"US","APOAPSIS":"548.133","GP_ID":"193811658","FILE":"3272312","ECCENTRICITY":"0.00012880","BSTAR":"0.00002883500000","INCLINATION":"53.0546","REF_FRAME":"TEME","PERIOD":"95.593","MEAN_MOTION_DDOT":"0.0000000000000","EPHEMERIS_TYPE":"0","ELEMENT_SET_NO":"999","MEAN_MOTION_DOT":"0.00000148","CLASSIFICATION_TYPE":"U","SITE":"AFETR","DECAY_DATE":null,"OBJECT_NAME":"STARLINK-1664","PERIAPSIS":"546.349","TLE_LINE2":"2 46553  53.0546 111.9852 0001288  94.5926 265.5210 15.06391119 71431"},{"SEMIMAJOR_AXIS":"6925.364","ARG_OF_PERICENTER":"102.9004","MEAN_MOTION":"15.06394806","COUNTRY_CODE":"US","LAUNCH_DATE":"2020-10-06","REV_AT_EPOCH":"7120","RA_OF_ASC_NODE":"127.6364","MEAN_ELEMENT_THEORY":"SGP4","EPOCH":"2022-01-13T14:15:03.770496","TLE_LINE1":"1 46554U 20070Y   22013.59379364  .00001882  00000-0  14524-3 0  9995","NORAD_CAT_ID":"46554","CENTER_NAME":"EARTH","RCS_SIZE":"LARGE","TIME_SYSTEM":"UTC","OBJECT_TYPE":"PAYLOAD","MEAN_ANOMALY":"257.2156","OBJECT_ID":"2020-070Y","OBJECT_NAME":"STARLINK-1671","PERIAPSIS":"546.171","TLE_LINE2":"2 46554  53.0539 127.6364 0001529 102.9004 257.2156 15.06394806 71203","ELEMENT_SET_NO":"999","MEAN_MOTION_DOT":"0.00001882","CLASSIFICATION_TYPE":"U","SITE":"AFETR","DECAY_DATE":null,"EPHEMERIS_TYPE":"0","MEAN_MOTION_DDOT":"0.0000000000000","PERIOD":"95.592","REF_FRAME":"TEME","BSTAR":"0.00014524000000","INCLINATION":"53.0539","ECCENTRICITY":"0.00015290","FILE":"3271980","APOAPSIS":"548.288","GP_ID":"193779605"}];
